STARLINK-36128          
1 66873U 25281AB  25349.25005787 -.01531881  00000+0 -75576-2 0  9995
2 66873  43.0000 106.6844 0001289 270.0323 282.7757 15.83897145  1836
STARLINK-36129          
1 66874U 25281AC  25349.25005787 -.01508099  00000+0 -74009-2 0  9991
2 66874  43.0001 106.6981 0001333 269.9520 277.5255 15.83962646  1830
STARLINK-36053          
1 66875U 25281AD  25349.25005787 -.01531502  00000+0 -75745-2 0  9995
2 66875  43.0003 106.6766 0001389 269.7999 285.8567 15.83843838  1832
STARLINK-35702          
1 66876U 25281AE  25349.25005787 -.01518273  00000+0 -74822-2 0  9991
2 66876  43.0004 106.6902 0001431 272.1252 278.5158 15.83893136  1835
ZQ-3 R/B                
1 66877U 25282A   25349.34467788  .01053515  75781-5  20352-3 0  9991
2 66877  56.9512  47.6627 0756384 224.4838 129.3024 14.64954974  1779
STARLINK-35866          
1 66878U 25283A   25349.34436074 -.00306758  00000+0 -11187-2 0  9999
2 66878  53.1553  60.7504 0000293  60.2040 299.9015 15.88390533  2863
STARLINK-35749          
1 66879U 25283B   25349.28053634 -.00404758  00000+0 -14804-2 0  9998
2 66879  53.1555  61.0626 0001260  94.2828 265.8342 15.88556094  2851
STARLINK-35844          
1 66880U 25283C   25349.28100638 -.00378746  00000+0 -13827-2 0  9998
2 66880  53.1555  61.0660 0001098 108.5201 251.5944 15.88534477  2855
STARLINK-35860          
1 66881U 25283D   25349.28017155 -.00420875  00000+0 -15399-2 0  9997
2 66881  53.1550  61.0599 0001292  86.4338 273.6836 15.88586477  2855
STARLINK-35912          
1 66882U 25283E   25349.21683346 -.00414751  00000+0 -15019-2 0  9997
2 66882  53.1553  61.3768 0001152  78.7281 281.3874 15.88778643  2841
STARLINK-35947          
1 66883U 25283F   25349.27930704 -.00419928  00000+0 -15316-2 0  9998
2 66883  53.1554  61.0546 0001023 103.8368 256.2772 15.88647931  2873
STARLINK-36057          
1 66884U 25283G   25349.27843449 -.00518729  00000+0 -19133-2 0  9998
2 66884  53.1553  61.0485 0000564  71.0469 289.0618 15.88651688  2857
