CCSDS_OMM_VERS = 2.0
CREATION_DATE  = 
ORIGINATOR     = 

OBJECT_NAME    = STARLINK-36128
OBJECT_ID      = 2025-281AB
CENTER_NAME    = EARTH
REF_FRAME      = TEME
TIME_SYSTEM    = UTC
MEAN_ELEMENT_THEORY = SGP/SGP4

EPOCH          = 2025-12-15T06:00:04.999968
MEAN_MOTION    = 15.83897145
ECCENTRICITY   = .00012898
INCLINATION    = 43.0000
RA_OF_ASC_NODE = 106.6844
ARG_OF_PERICENTER = 270.0323
MEAN_ANOMALY   = 282.7757

EPHEMERIS_TYPE = 0
CLASSIFICATION_TYPE = U
NORAD_CAT_ID   = 66873
ELEMENT_SET_NO = 999
REV_AT_EPOCH   = 183
BSTAR          = -.75576349E-2
MEAN_MOTION_DOT = -.1531881E-1
MEAN_MOTION_DDOT = 0

CCSDS_OMM_VERS = 2.0
CREATION_DATE  = 
ORIGINATOR     = 

OBJECT_NAME    = STARLINK-36129
OBJECT_ID      = 2025-281AC
CENTER_NAME    = EARTH
REF_FRAME      = TEME
TIME_SYSTEM    = UTC
MEAN_ELEMENT_THEORY = SGP/SGP4

EPOCH          = 2025-12-15T06:00:04.999968
MEAN_MOTION    = 15.83962646
ECCENTRICITY   = .0001333
INCLINATION    = 43.0001
RA_OF_ASC_NODE = 106.6981
ARG_OF_PERICENTER = 269.9520
MEAN_ANOMALY   = 277.5255

EPHEMERIS_TYPE = 0
CLASSIFICATION_TYPE = U
NORAD_CAT_ID   = 66874
ELEMENT_SET_NO = 999
REV_AT_EPOCH   = 183
BSTAR          = -.74008531E-2
MEAN_MOTION_DOT = -.1508099E-1
MEAN_MOTION_DDOT = 0

CCSDS_OMM_VERS = 2.0
CREATION_DATE  = 
ORIGINATOR     = 

OBJECT_NAME    = STARLINK-36053
OBJECT_ID      = 2025-281AD
CENTER_NAME    = EARTH
REF_FRAME      = TEME
TIME_SYSTEM    = UTC
MEAN_ELEMENT_THEORY = SGP/SGP4

EPOCH          = 2025-12-15T06:00:04.999968
MEAN_MOTION    = 15.83843838
ECCENTRICITY   = .00013895
INCLINATION    = 43.0003
RA_OF_ASC_NODE = 106.6766
ARG_OF_PERICENTER = 269.7999
MEAN_ANOMALY   = 285.8567

EPHEMERIS_TYPE = 0
CLASSIFICATION_TYPE = U
NORAD_CAT_ID   = 66875
ELEMENT_SET_NO = 999
REV_AT_EPOCH   = 183
BSTAR          = -.75745492E-2
MEAN_MOTION_DOT = -.1531502E-1
MEAN_MOTION_DDOT = 0

CCSDS_OMM_VERS = 2.0
CREATION_DATE  = 
ORIGINATOR     = 

OBJECT_NAME    = STARLINK-35702
OBJECT_ID      = 2025-281AE
CENTER_NAME    = EARTH
REF_FRAME      = TEME
TIME_SYSTEM    = UTC
MEAN_ELEMENT_THEORY = SGP/SGP4

EPOCH          = 2025-12-15T06:00:04.999968
MEAN_MOTION    = 15.83893136
ECCENTRICITY   = .00014312
INCLINATION    = 43.0004
RA_OF_ASC_NODE = 106.6902
ARG_OF_PERICENTER = 272.1252
MEAN_ANOMALY   = 278.5158

EPHEMERIS_TYPE = 0
CLASSIFICATION_TYPE = U
NORAD_CAT_ID   = 66876
ELEMENT_SET_NO = 999
REV_AT_EPOCH   = 183
BSTAR          = -.74822258E-2
MEAN_MOTION_DOT = -.1518273E-1
MEAN_MOTION_DDOT = 0

CCSDS_OMM_VERS = 2.0
CREATION_DATE  = 
ORIGINATOR     = 

OBJECT_NAME    = ZQ-3 R/B
OBJECT_ID      = 2025-282A
CENTER_NAME    = EARTH
REF_FRAME      = TEME
TIME_SYSTEM    = UTC
MEAN_ELEMENT_THEORY = SGP/SGP4

EPOCH          = 2025-12-15T08:16:20.168832
MEAN_MOTION    = 14.64954974
ECCENTRICITY   = .07563846
INCLINATION    = 56.9512
RA_OF_ASC_NODE = 47.6627
ARG_OF_PERICENTER = 224.4838
MEAN_ANOMALY   = 129.3024

EPHEMERIS_TYPE = 0
CLASSIFICATION_TYPE = U
NORAD_CAT_ID   = 66877
ELEMENT_SET_NO = 999
REV_AT_EPOCH   = 177
BSTAR          = .20352027E-3
MEAN_MOTION_DOT = .1053515E-1
MEAN_MOTION_DDOT = .7578075E-5

CCSDS_OMM_VERS = 2.0
CREATION_DATE  = 
ORIGINATOR     = 

OBJECT_NAME    = STARLINK-35866
OBJECT_ID      = 2025-283A
CENTER_NAME    = EARTH
REF_FRAME      = TEME
TIME_SYSTEM    = UTC
MEAN_ELEMENT_THEORY = SGP/SGP4

EPOCH          = 2025-12-15T08:15:52.767936
MEAN_MOTION    = 15.88390533
ECCENTRICITY   = .00002936
INCLINATION    = 53.1553
RA_OF_ASC_NODE = 60.7504
ARG_OF_PERICENTER = 60.2040
MEAN_ANOMALY   = 299.9015

EPHEMERIS_TYPE = 0
CLASSIFICATION_TYPE = U
NORAD_CAT_ID   = 66878
ELEMENT_SET_NO = 999
REV_AT_EPOCH   = 286
BSTAR          = -.11186688E-2
MEAN_MOTION_DOT = -.306758E-2
MEAN_MOTION_DDOT = 0

CCSDS_OMM_VERS = 2.0
CREATION_DATE  = 
ORIGINATOR     = 

OBJECT_NAME    = STARLINK-35749
OBJECT_ID      = 2025-283B
CENTER_NAME    = EARTH
REF_FRAME      = TEME
TIME_SYSTEM    = UTC
MEAN_ELEMENT_THEORY = SGP/SGP4

EPOCH          = 2025-12-15T06:43:58.339776
MEAN_MOTION    = 15.88556094
ECCENTRICITY   = .00012608
INCLINATION    = 53.1555
RA_OF_ASC_NODE = 61.0626
ARG_OF_PERICENTER = 94.2828
MEAN_ANOMALY   = 265.8342

EPHEMERIS_TYPE = 0
CLASSIFICATION_TYPE = U
NORAD_CAT_ID   = 66879
ELEMENT_SET_NO = 999
REV_AT_EPOCH   = 285
BSTAR          = -.1480429E-2
MEAN_MOTION_DOT = -.404758E-2
MEAN_MOTION_DDOT = 0

CCSDS_OMM_VERS = 2.0
CREATION_DATE  = 
ORIGINATOR     = 

OBJECT_NAME    = STARLINK-35844
OBJECT_ID      = 2025-283C
CENTER_NAME    = EARTH
REF_FRAME      = TEME
TIME_SYSTEM    = UTC
MEAN_ELEMENT_THEORY = SGP/SGP4

EPOCH          = 2025-12-15T06:44:38.951232
MEAN_MOTION    = 15.88534477
ECCENTRICITY   = .00010986
INCLINATION    = 53.1555
RA_OF_ASC_NODE = 61.0660
ARG_OF_PERICENTER = 108.5201
MEAN_ANOMALY   = 251.5944

EPHEMERIS_TYPE = 0
CLASSIFICATION_TYPE = U
NORAD_CAT_ID   = 66880
ELEMENT_SET_NO = 999
REV_AT_EPOCH   = 285
BSTAR          = -.13826835E-2
MEAN_MOTION_DOT = -.378746E-2
MEAN_MOTION_DDOT = 0

CCSDS_OMM_VERS = 2.0
CREATION_DATE  = 
ORIGINATOR     = 

OBJECT_NAME    = STARLINK-35860
OBJECT_ID      = 2025-283D
CENTER_NAME    = EARTH
REF_FRAME      = TEME
TIME_SYSTEM    = UTC
MEAN_ELEMENT_THEORY = SGP/SGP4

EPOCH          = 2025-12-15T06:43:26.821920
MEAN_MOTION    = 15.88586477
ECCENTRICITY   = .0001292
INCLINATION    = 53.1550
RA_OF_ASC_NODE = 61.0599
ARG_OF_PERICENTER = 86.4338
MEAN_ANOMALY   = 273.6836

EPHEMERIS_TYPE = 0
CLASSIFICATION_TYPE = U
NORAD_CAT_ID   = 66881
ELEMENT_SET_NO = 999
REV_AT_EPOCH   = 285
BSTAR          = -.15398656E-2
MEAN_MOTION_DOT = -.420875E-2
MEAN_MOTION_DDOT = 0

CCSDS_OMM_VERS = 2.0
CREATION_DATE  = 
ORIGINATOR     = 

OBJECT_NAME    = STARLINK-35912
OBJECT_ID      = 2025-283E
CENTER_NAME    = EARTH
REF_FRAME      = TEME
TIME_SYSTEM    = UTC
MEAN_ELEMENT_THEORY = SGP/SGP4

EPOCH          = 2025-12-15T05:12:14.410944
MEAN_MOTION    = 15.88778643
ECCENTRICITY   = .00011529
INCLINATION    = 53.1553
RA_OF_ASC_NODE = 61.3768
ARG_OF_PERICENTER = 78.7281
MEAN_ANOMALY   = 281.3874

EPHEMERIS_TYPE = 0
CLASSIFICATION_TYPE = U
NORAD_CAT_ID   = 66882
ELEMENT_SET_NO = 999
REV_AT_EPOCH   = 284
BSTAR          = -.15018572E-2
MEAN_MOTION_DOT = -.414751E-2
MEAN_MOTION_DDOT = 0

CCSDS_OMM_VERS = 2.0
CREATION_DATE  = 
ORIGINATOR     = 

OBJECT_NAME    = STARLINK-35947
OBJECT_ID      = 2025-283F
CENTER_NAME    = EARTH
REF_FRAME      = TEME
TIME_SYSTEM    = UTC
MEAN_ELEMENT_THEORY = SGP/SGP4

EPOCH          = 2025-12-15T06:42:12.128256
MEAN_MOTION    = 15.88647931
ECCENTRICITY   = .00010236
INCLINATION    = 53.1554
RA_OF_ASC_NODE = 61.0546
ARG_OF_PERICENTER = 103.8368
MEAN_ANOMALY   = 256.2772

EPHEMERIS_TYPE = 0
CLASSIFICATION_TYPE = U
NORAD_CAT_ID   = 66883
ELEMENT_SET_NO = 999
REV_AT_EPOCH   = 287
BSTAR          = -.15316077E-2
MEAN_MOTION_DOT = -.419928E-2
MEAN_MOTION_DDOT = 0

CCSDS_OMM_VERS = 2.0
CREATION_DATE  = 
ORIGINATOR     = 

OBJECT_NAME    = STARLINK-36057
OBJECT_ID      = 2025-283G
CENTER_NAME    = EARTH
REF_FRAME      = TEME
TIME_SYSTEM    = UTC
MEAN_ELEMENT_THEORY = SGP/SGP4

EPOCH          = 2025-12-15T06:40:56.739936
MEAN_MOTION    = 15.88651688
ECCENTRICITY   = .00005647
INCLINATION    = 53.1553
RA_OF_ASC_NODE = 61.0485
ARG_OF_PERICENTER = 71.0469
MEAN_ANOMALY   = 289.0618

EPHEMERIS_TYPE = 0
CLASSIFICATION_TYPE = U
NORAD_CAT_ID   = 66884
ELEMENT_SET_NO = 999
REV_AT_EPOCH   = 285
BSTAR          = -.19133106E-2
MEAN_MOTION_DOT = -.518729E-2
MEAN_MOTION_DDOT = 0

